34146,2016,02,01,00,00,AAXX 01001 34146 41596 71804 10026 20016 39930 40061 57025 71022 87500 333 91112=
34146,2016,02,01,03,00,AAXX 01031 34146 11596 71903 10025 20015 39911 40042 57019 60002 71022 87500 333 20023 44021 91110=
34146,2016,02,01,06,00,AAXX 01061 34146 41596 72304 10027 20009 39928 40059 53017 71022 87500 333 91112=
34146,2016,02,01,09,00,AAXX 01091 34146 42597 72604 10030 21002 39938 40069 52010 87500=
34146,2016,02,01,12,00,AAXX 01121 34146 42597 72803 10024 21016 39950 40082 52012 87500=